COMMENT,ORIGINATOR,NORAD_CAT_ID,OBJECT_NAME,OBJECT_TYPE,CLASSIFICATION_TYPE,INTLDES,EPOCH,EPOCH_MICROSECONDS,MEAN_MOTION,ECCENTRICITY,INCLINATION,RA_OF_ASC_NODE,ARG_OF_PERICENTER,MEAN_ANOMALY,EPHEMERIS_TYPE,ELEMENT_SET_NO,REV_AT_EPOCH,BSTAR,MEAN_MOTION_DOT,MEAN_MOTION_DDOT,FILE,TLE_LINE0,TLE_LINE1,TLE_LINE2,OBJECT_ID,OBJECT_NUMBER,SEMIMAJOR_AXIS,PERIOD,APOGEE,PERIGEE,DECAYED,date
GENERATED VIA SPACETRACK.ORG API,18 SPCS,48897,SPACEBEE-109,PAYLOAD,U,21059U,2023/3/24 20:50,157632,15.26546519,0.0008581,97.585,219.4658,209.3713,150.7043,0,999,9652,0.0016152,0.00042385,0,3870109,0 SPACEBEE-109,1 48897U 21059U   23083.86868238  .00042385  00000-0  16152-2 0  9997,2 48897  97.5850 219.4658 0008581 209.3713 150.7043 15.26546519 96520,2021-059U,48897,6864.282,94.331,492.038,480.257,0,
GENERATED VIA SPACETRACK.ORG API,18 SPCS,48897,SPACEBEE-109,PAYLOAD,U,21059U,2023/3/25 22:01,631968,15.26642456,0.0008573,97.5851,220.5307,205.6521,154.4293,0,999,9668,0.0017257,0.0004544,0,3871104,0 SPACEBEE-109,1 48897U 21059U   23084.91743787  .00045440  00000-0  17257-2 0  9997,2 48897  97.5851 220.5307 0008573 205.6521 154.4293 15.26642456 96684,2021-059U,48897,6863.995,94.325,491.744,479.975,0,
GENERATED VIA SPACETRACK.ORG API,18 SPCS,48897,SPACEBEE-109,PAYLOAD,U,21059U,2023/3/26 2:44,836352,15.26658408,0.0008593,97.5851,220.7304,204.928,155.1544,0,999,9671,0.0015791,0.00041572,0,3871230,0 SPACEBEE-109,1 48897U 21059U   23085.11407218  .00041572  00000-0  15791-2 0  9999,2 48897  97.5851 220.7304 0008593 204.9280 155.1544 15.26658408 96714,2021-059U,48897,6863.947,94.324,491.71,479.914,0,
GENERATED VIA SPACETRACK.ORG API,18 SPCS,48897,SPACEBEE-109,PAYLOAD,U,21059U,2023/3/26 21:36,121152,15.26717212,0.0008569,97.5853,221.5294,202.0913,157.9957,0,999,9683,0.0013949,0.00036755,0,3871964,0 SPACEBEE-109,1 48897U 21059U   23085.90059168  .00036755  00000-0  13949-2 0  9993,2 48897  97.5853 221.5294 0008569 202.0913 157.9957 15.26717212 96838,2021-059U,48897,6863.771,94.32,491.517,479.754,0,
GENERATED VIA SPACETRACK.ORG API,18 SPCS,48897,SPACEBEE-109,PAYLOAD,U,21059U,2023/3/27 3:54,239360,15.26739267,0.0008568,97.5851,221.7956,201.2587,158.8297,0,999,9687,0.0015053,0.00039712,0,3872087,0 SPACEBEE-109,1 48897U 21059U   23086.16275740  .00039712  00000-0  15053-2 0  9992,2 48897  97.5851 221.7956 0008568 201.2587 158.8297 15.26739267 96875,2021-059U,48897,6863.705,94.319,491.451,479.689,0,
GENERATED VIA SPACETRACK.ORG API,18 SPCS,48897,SPACEBEE-109,PAYLOAD,U,21059U,2023/3/27 8:37,390528,15.26755389,0.0008559,97.585,221.9955,200.7515,159.3377,0,999,9690,0.0014982,0.00039543,0,3872569,0 SPACEBEE-109,1 48897U 21059U   23086.35937952  .00039543  00000-0  14982-2 0  9995,2 48897  97.5850 221.9955 0008559 200.7515 159.3377 15.26755389 96902,2021-059U,48897,6863.656,94.318,491.396,479.647,0,
GENERATED VIA SPACETRACK.ORG API,18 SPCS,48897,SPACEBEE-109,PAYLOAD,U,21059U,2023/3/27 21:12,260096,15.26795945,0.0008575,97.5851,222.5281,199.3521,160.7392,0,999,9698,0.0014045,0.00037098,0,3872915,0 SPACEBEE-109,1 48897U 21059U   23086.88369514  .00037098  00000-0  14045-2 0  9999,2 48897  97.5851 222.5281 0008575 199.3521 160.7392 15.26795945 96983,2021-059U,48897,6863.535,94.315,491.285,479.514,0,
GENERATED VIA SPACETRACK.ORG API,18 SPCS,48897,SPACEBEE-109,PAYLOAD,U,21059U,2023/3/28 8:13,526720,15.26833644,0.000851,97.5847,222.9946,198.1053,161.9883,0,999,9705,0.0015085,0.00039911,0,3873346,0 SPACEBEE-109,1 48897U 21059U   23087.34245980  .00039911  00000-0  15085-2 0  9992,2 48897  97.5847 222.9946 0008510 198.1053 161.9883 15.26833644 97052,2021-059U,48897,6863.422,94.313,491.128,479.446,0,
GENERATED VIA SPACETRACK.ORG API,18 SPCS,48897,SPACEBEE-109,PAYLOAD,U,21059U,2023/3/28 8:13,526720,15.26833644,0.000851,97.5847,222.9946,198.1053,161.9883,0,999,9705,0.0015085,0.00039911,0,3873565,0 SPACEBEE-109,1 48897U 21059U   23087.34245980  .00039911  00000-0  15085-2 0  9992,2 48897  97.5847 222.9946 0008510 198.1053 161.9883 15.26833644 97052,2021-059U,48897,6863.422,94.313,491.128,479.446,0,
GENERATED VIA SPACETRACK.ORG API,18 SPCS,48897,SPACEBEE-109,PAYLOAD,U,21059U,2023/3/28 20:48,12512,15.26881237,0.0008464,97.5851,223.5267,196.696,163.4,0,999,9713,0.0016659,0.00044171,0,3873921,0 SPACEBEE-109,1 48897U 21059U   23087.86674783  .00044171  00000-0  16659-2 0  9998,2 48897  97.5851 223.5267 0008464 196.6960 163.4000 15.26881237 97136,2021-059U,48897,6863.279,94.31,490.953,479.335,0,
GENERATED VIA SPACETRACK.ORG API,18 SPCS,48897,SPACEBEE-109,PAYLOAD,U,21059U,2023/3/29 7:48,34464,15.26922742,0.0008471,97.5849,223.9929,195.1215,164.9771,0,999,9720,0.001711,0.00045434,0,3874335,0 SPACEBEE-109,1 48897U 21059U   23088.32548651  .00045434  00000-0  17110-2 0  9990,2 48897  97.5849 223.9929 0008471 195.1215 164.9771 15.26922742 97203,2021-059U,48897,6863.155,94.307,490.834,479.206,0,
GENERATED VIA SPACETRACK.ORG API,18 SPCS,48897,SPACEBEE-109,PAYLOAD,U,21059U,2023/3/29 7:48,34464,15.26922742,0.0008471,97.5849,223.9929,195.1215,164.9771,0,999,9720,0.001711,0.00045434,0,3874492,0 SPACEBEE-109,1 48897U 21059U   23088.32548651  .00045434  00000-0  17110-2 0  9990,2 48897  97.5849 223.9929 0008471 195.1215 164.9771 15.26922742 97203,2021-059U,48897,6863.155,94.307,490.834,479.206,0,
GENERATED VIA SPACETRACK.ORG API,18 SPCS,48897,SPACEBEE-109,PAYLOAD,U,21059U,2023/3/29 20:23,860000,15.26972462,0.0008411,97.5852,224.5253,193.3092,166.7926,0,999,9728,0.0017498,0.00046542,0,3874790,0 SPACEBEE-109,1 48897U 21059U   23088.84974375  .00046542  00000-0  17498-2 0  9993,2 48897  97.5852 224.5253 0008411 193.3092 166.7926 15.26972462 97285,2021-059U,48897,6863.006,94.304,490.643,479.098,0,
GENERATED VIA SPACETRACK.ORG API,18 SPCS,48897,SPACEBEE-109,PAYLOAD,U,21059U,2023/3/30 8:58,200320,15.27023023,0.0008426,97.5852,225.0582,191.2351,168.87,0,999,9736,0.0018086,0.00048193,0,3875234,0 SPACEBEE-109,1 48897U 21059U   23089.37398380  .00048193  00000-0  18086-2 0  9996,2 48897  97.5852 225.0582 0008426 191.2351 168.8700 15.27023023 97360,2021-059U,48897,6862.854,94.301,490.502,478.937,0,
GENERATED VIA SPACETRACK.ORG API,18 SPCS,48897,SPACEBEE-109,PAYLOAD,U,21059U,2023/3/30 8:58,200320,15.27023023,0.0008426,97.5852,225.0582,191.2351,168.87,0,999,9736,0.0018086,0.00048193,0,3875726,0 SPACEBEE-109,1 48897U 21059U   23089.37398380  .00048193  00000-0  18086-2 0  9996,2 48897  97.5852 225.0582 0008426 191.2351 168.8700 15.27023023 97360,2021-059U,48897,6862.854,94.301,490.502,478.937,0,
GENERATED VIA SPACETRACK.ORG API,18 SPCS,48897,SPACEBEE-109,PAYLOAD,U,21059U,2023/4/1 8:09,575232,15.27210456,0.0008562,97.585,227.0563,185.0311,175.0843,0,999,9766,0.0017392,0.00046596,0,3877070,0 SPACEBEE-109,1 48897U 21059U   23091.33972888  .00046596  00000-0  17392-2 0  9990,2 48897  97.5850 227.0563 0008562 185.0311 175.0843 15.27210456 97666,2021-059U,48897,6862.293,94.29,490.033,478.282,0,
GENERATED VIA SPACETRACK.ORG API,18 SPCS,48897,SPACEBEE-109,PAYLOAD,U,21059U,2023/4/1 14:26,514464,15.27228034,0.0008486,97.585,227.323,184.3059,175.8108,0,999,9770,0.0015652,0.00041922,0,3877270,0 SPACEBEE-109,1 48897U 21059U   23091.60181151  .00041922  00000-0  15652-2 0  9990,2 48897  97.5850 227.3230 0008486 184.3059 175.8108 15.27228034 97704,2021-059U,48897,6862.24,94.288,489.929,478.282,0,
GENERATED VIA SPACETRACK.ORG API,18 SPCS,48897,SPACEBEE-109,PAYLOAD,U,21059U,2023/4/2 7:44,469664,15.27295903,0.0008432,97.5852,228.056,182.1725,177.9478,0,999,9781,0.0017862,0.00047988,0,3878126,0 SPACEBEE-109,1 48897U 21059U   23092.32251701  .00047988  00000-0  17862-2 0  9992,2 48897  97.5852 228.0560 0008432 182.1725 177.9478 15.27295903 97811,2021-059U,48897,6862.037,94.284,489.688,478.116,0,
GENERATED VIA SPACETRACK.ORG API,18 SPCS,48897,SPACEBEE-109,PAYLOAD,U,21059U,2023/4/2 20:19,388064,15.27335114,0.0008426,97.5856,228.589,180.3175,179.806,0,999,9789,0.0014158,0.00038016,0,3878230,0 SPACEBEE-109,1 48897U 21059U   23092.84664801  .00038016  00000-0  14158-2 0  9995,2 48897  97.5856 228.5890 0008426 180.3175 179.8060 15.27335114 97893,2021-059U,48897,6861.919,94.282,489.566,478.003,0,
GENERATED VIA SPACETRACK.ORG API,18 SPCS,48897,SPACEBEE-109,PAYLOAD,U,21059U,2023/4/2 21:53,918624,15.27339674,0.0008432,97.5856,228.6556,180.0439,180.08,0,999,9790,0.0013833,0.00037142,0,3878419,0 SPACEBEE-109,1 48897U 21059U   23092.91216341  .00037142  00000-0  13833-2 0  9993,2 48897  97.5856 228.6556 0008432 180.0439 180.0800 15.27339674 97903,2021-059U,48897,6861.906,94.282,489.557,477.985,0,
GENERATED VIA SPACETRACK.ORG API,18 SPCS,48897,SPACEBEE-109,PAYLOAD,U,21059U,2023/4/3 7:19,638880,15.27376487,0.0008423,97.5856,229.0553,178.5033,181.6232,0,999,9796,0.0016054,0.00043201,0,3879059,0 SPACEBEE-109,1 48897U 21059U   23093.30525045  .00043201  00000-0  16054-2 0  9992,2 48897  97.5856 229.0553 0008423 178.5033 181.6232 15.27376487 97962,2021-059U,48897,6861.796,94.279,489.44,477.881,0,
GENERATED VIA SPACETRACK.ORG API,18 SPCS,48897,SPACEBEE-109,PAYLOAD,U,21059U,2023/4/3 7:19,638880,15.27376487,0.0008423,97.5856,229.0553,178.5033,181.6232,0,999,9796,0.0016054,0.00043201,0,3879214,0 SPACEBEE-109,1 48897U 21059U   23093.30525045  .00043201  00000-0  16054-2 0  9992,2 48897  97.5856 229.0553 0008423 178.5033 181.6232 15.27376487 97962,2021-059U,48897,6861.796,94.279,489.44,477.881,0,
GENERATED VIA SPACETRACK.ORG API,18 SPCS,48897,SPACEBEE-109,PAYLOAD,U,21059U,2023/4/4 8:28,406944,15.27462855,0.0008416,97.5857,230.1215,174.9603,185.1721,0,999,9812,0.001599,0.00043141,0,3879821,0 SPACEBEE-109,1 48897U 21059U   23094.35344221  .00043141  00000-0  15990-2 0  9994,2 48897  97.5857 230.1215 0008416 174.9603 185.1721 15.27462855 98122,2021-059U,48897,6861.537,94.274,489.177,477.627,0,
